[{"OBJECT_NAME":"BRITE-PL2 (HEWELIUSZ)","OBJECT_ID":"2014-049B","EPOCH":"2026-03-09T20:58:34.162464","MEAN_MOTION":14.94186201,"ECCENTRICITY":0.00154454,"INCLINATION":97.8982,"RA_OF_ASC_NODE":180.2053,"ARG_OF_PERICENTER":80.5248,"MEAN_ANOMALY":279.7716,"EPHEMERIS_TYPE":0,"CLASSIFICATION_TYPE":"U","NORAD_CAT_ID":40119,"ELEMENT_SET_NO":999,"REV_AT_EPOCH":62661,"BSTAR":0.00026097212,"MEAN_MOTION_DOT":2.742e-5,"MEAN_MOTION_DDOT":0},{"OBJECT_NAME":"STARLINK-5862","OBJECT_ID":"2023-037G","EPOCH":"2026-03-09T22:41:26.758176","MEAN_MOTION":14.98328519,"ECCENTRICITY":0.00027459,"INCLINATION":69.9976,"RA_OF_ASC_NODE":284.0081,"ARG_OF_PERICENTER":270.8267,"MEAN_ANOMALY":89.2578,"EPHEMERIS_TYPE":0,"CLASSIFICATION_TYPE":"U","NORAD_CAT_ID":55920,"ELEMENT_SET_NO":999,"REV_AT_EPOCH":16401,"BSTAR":7.8461693e-5,"MEAN_MOTION_DOT":8.43e-6,"MEAN_MOTION_DDOT":0}]
